#aV2013 10 29  0  0  0.00000000     288 DD+AD WGS84 FIT  NGA
## 1764 172800.00000000   300.00000000 56594 0.0000000000000
+   31     1  2  3  4  5  6  7  8  9 10 11 12 13 14 15 16 17
+         18 19 20 21 22 23 24 25 26 27 28 29 31 32  0  0  0
+          0  0  0  0  0  0  0  0  0  0  0  0  0  0  0  0  0
+          0  0  0  0  0  0  0  0  0  0  0  0  0  0  0  0  0
+          0  0  0  0  0  0  0  0  0  0  0  0  0  0  0  0  0
++         2  2  2  2  2  2  2  2  2  2  2  2  2  2  2  2  2
++         2  2  2  2  2  2  2  2  2  2  2  2  2  2  2  0  0
++         0  0  0  0  0  0  0  0  0  0  0  0  0  0  0  0  0
++         0  0  0  0  0  0  0  0  0  0  0  0  0  0  0  0  0
++         0  0  0  0  0  0  0  0  0  0  0  0  0  0  0  0  0
%c cc cc ccc ccc cccc cccc cccc cccc ccccc ccccc ccccc ccccc
%c cc cc ccc ccc cccc cccc cccc cccc ccccc ccccc ccccc ccccc
%f  0.0000000  0.000000000  0.00000000000  0.000000000000000
%f  0.0000000  0.000000000  0.00000000000  0.000000000000000
%i    0    0    0    0      0      0      0      0         0
%i    0    0    0    0      0      0      0      0         0
/*      NGA, ST. LOUIS,MO.                                  
/*   EPHEMERIS COMPUTED FROM  1 DAYS OF DATA
/*   EPOCHA SMOOTHER  
/* CCCCCCCCCCCCCCCCCCCCCCCCCCCCCCCCCCCCCCCCCCCCCCCCCCCCCCCCC
*  2013 10 29 18 10  0.00000000                                                 
P  1  22012.319288  13787.686997  -5856.500689     89.506782                    
V  1  -7817.378037   -449.943433 -30506.312152      0.034742                    
P  2  -1851.727353 -16999.089767  20665.250672    458.377585                    
V  2  24162.947404   8739.595643   8955.948402      0.021222                    
P  3  -1273.208551  20060.884922 -17812.101048    279.089064                    
V  3 -16624.038202  14114.493746  17802.303446      0.050140                    
P  4  13531.136873 -10374.334930  20119.193559      2.576894                    
V  4  23845.894624  11026.302283  -9942.250188      0.003168                    
P  5  -1716.598381 -26313.598877   2333.418667   -398.401516                    
V  5   3691.281702   2569.656603  31394.444979      0.005189                    
P  6  -9115.350354  20808.407025 -13382.633780    125.375684                    
V  6 -14974.641502   9116.015537  24654.542609      0.177497                    
P  7  24840.931113   4719.839302  -8586.485896    274.916496                    
V  7   9139.811970   6223.346042  29324.323103      0.041853                    
P  8  19785.535726  -1984.942797 -17775.325506      9.497070                    
V  8  19275.574363  11690.089145  19406.167559      0.003134                    
P  9  19347.069152  -4947.777167 -18110.535099    279.139578                    
V  9  19732.998460   9399.712683  18945.413024      0.028662                    
P 10  10220.045535 -17476.317833  16654.086657    -99.678469                    
V 10   4850.211308  21565.875180  19713.388721     -0.012920                    
P 11  17820.882332  13707.867658 -14791.614712   -433.155201                    
V 11 -18355.699722   1567.791412 -21109.188797     -0.033910                    
P 12 -10936.931906 -20028.075355  13718.475736    164.966864                    
V 12   -118.725709 -17432.962534 -25258.259766      0.022437                    
P 13  22291.246006  -2375.079974  14226.011597     65.169301                    
V 13 -14697.897039  10848.544617  24477.876090     -0.038539                    
P 14 -21360.422505  15542.097064   2033.846384    212.079356                    
V 14  -3345.935548   -878.198547 -31968.545639     -0.010065                    
P 15  -9385.456731 -12594.678317 -21443.285313   -144.443945                    
V 15  21293.987273 -16999.559665    937.197619     -0.019289                    
P 16    435.867024  26277.175793   2201.917811   -243.249249                    
V 16  -2472.261842  -2681.523385  32381.941219      0.009834                    
P 17  21291.704856 -15638.567146    964.496599    -35.766043                    
V 17   2410.998591   1785.228567 -32007.746045     -0.036682                    
P 18 -15774.758300    592.130335 -20947.910840    282.037659                    
V 18  -3512.807170 -27492.329790   1494.742526      0.020897                    
P 19   5688.720307  14265.140790 -21758.148622   -414.858396                    
V 19 -23485.620324  14067.755347   3518.252051     -0.026698                    
P 20  14700.637605  15645.860470  15504.440091    132.948181                    
V 20   1061.858158  20226.885675 -21091.608494      0.028096                    
P 21 -24515.129198  -2162.770656 -10009.557757   -325.948859                    
V 21 -11241.898610  -8004.253134  27141.464348     -0.018428                    
P 22 -12228.492262  14297.947073 -18493.889534    192.293674                    
V 22  -5061.082028 -23624.563354 -14905.772003      0.021844                    
P 23  16185.113065   5992.922709  20382.965791     34.867722                    
V 23 -20053.617795  15925.213743  10893.732053     -0.033964                    
P 24 -19402.529252 -15354.779505  -9738.347877    -16.419440                    
V 24  12392.734677   2320.502480 -28301.701516     -0.007264                    
P 25 -15077.653455  -6904.423282  20714.007026    162.019270                    
V 25  -2686.618121 -26238.134305 -10573.368647      0.034407                    
P 26   5180.599335 -18312.359864 -19035.160979    263.340065                    
V 26  20121.317505 -11027.614562  16964.815940      0.191945                    
P 27  -6622.742364  19650.972083 -16597.457145    -52.956030                    
V 27 -17844.625181  11335.951045  20569.239084     -0.038616                    
P 28  12704.234864 -10564.982730 -20159.526599    304.534540                    
V 28   2745.342991  26807.224520 -12135.174677      0.029813                    
P 29 -20226.513168   -563.858013  17222.926434    482.854570                    
V 29  17077.288667 -13639.500228  19687.054436      0.030207                    
P 31 -11358.258457  10810.253033  21652.279367    328.775079                    
V 31 -24440.886697 -11439.045313  -6885.430982      0.006484                    
P 32   7332.362850  24272.772159   8873.581012   -535.458626                    
V 32  -2026.959102  11082.546999 -28420.832704      0.040540                    
EOF
